KUIPER-00165            
1 65778U 25217S   25328.85292183  .00030029  00000+0  81718-3 0  9999
2 65778  51.8676 150.8535 0003065 269.2946  90.7690 15.37263927  9293
KUIPER-00166            
1 65779U 25217T   25328.90953608  .00062724  00000+0  16480-2 0  9992
2 65779  51.8700 150.4932 0003502 253.8119 106.2483 15.38006723  9301
KUIPER-00167            
1 65780U 25217U   25329.08336806 -.00920022  00000+0 -51842-1 0  9995
2 65780  51.8772 151.8327 0010477 280.1559 290.9098 15.15393746  3435
KUIPER-00168            
1 65781U 25217V   25328.75211135  .00046927  00000+0  12122-2 0  9996
2 65781  51.8693 150.9464 0002473 185.1896 174.9066 15.38659278  9280
KUIPER-00169            
1 65782U 25217W   25328.90994994  .00054482  00000+0  14262-2 0  9997
2 65782  51.8694 150.4970 0003059 261.8093  98.2547 15.38183918  9309
KUIPER-00170            
1 65783U 25217X   25329.08336806 -.00013826  00000+0 -41679-3 0  9992
2 65783  51.8667 150.1591 0006257 295.8999  53.7284 15.32958560  5612
KUIPER-00171            
1 65784U 25217Y   25328.88593600  .00139102  00000+0  13028-2 0  9997
2 65784  51.8568 146.6156 0007685 286.9454  73.0703 15.66241057  9352
KUIPER-00172            
1 65785U 25217Z   25328.89400922  .00042644  00000+0  11072-2 0  9994
2 65785  51.8704 150.3951 0002615 267.5069  92.5619 15.38546811  9307
KUIPER-00173            
1 65786U 25217AA  25328.90351422  .00045768  00000+0  11989-2 0  9994
2 65786  51.8689 150.4534 0002663 253.7657 106.3038 15.38242042  9309
KUIPER-00174            
1 65787U 25217AB  25328.75802280  .00047907  00000+0  12432-2 0  9992
2 65787  51.8703 150.9828 0003377 209.5780 150.5017 15.38506799  9284
KUIPER-00176            
1 65788U 25217AC  25329.08336806 -.00841159  00000+0 -41714-1 0  9993
2 65788  51.8817 150.6808 0003298 260.6777 167.9440 15.20089176  5129
KUIPER-00101            
1 65947U 25228A   25329.08336806 -.00866454  00000+0 -46075-1 0  9992
2 65947  51.8944 106.9857 0003984 302.5074 175.9751 15.17326509  5206
KUIPER-00113            
1 65948U 25228B   25329.08336806 -.00002782  00000+0 -92183-4 0  9993
2 65948  51.8810 105.7688 0006125 289.8247  23.9371 15.26405569  3300
KUIPER-00117            
1 65949U 25228C   25329.08336806 -.01259443  00000+0 -59854-1 0  9998
2 65949  51.8841 106.2749 0008021 295.6344 120.8702 15.21715258  5872
KUIPER-00121            
1 65950U 25228D   25329.08336806  .00006148  00000+0  18778-3 0  9991
2 65950  51.8784 105.7264 0005456 308.0514  47.7503 15.35245164  5889
KUIPER-00122            
1 65951U 25228E   25329.08336806 -.01364245  00000+0 -89301-1 0  9998
2 65951  51.8885 108.0010 0005631 327.3129  22.1362 15.10329828  4082
KUIPER-00123            
1 65952U 25228F   25329.08336806 -.01014364  00000+0 -66824-1 0  9998
2 65952  51.8901 108.0186 0006257 306.2371 313.0113 15.09711350  4614
KUIPER-00124            
1 65953U 25228G   25329.09140370  .00047275  00000+0  13864-2 0  9990
2 65953  51.8788 105.7660 0004621 323.3054  36.7614 15.34705466  7707
KUIPER-00125            
1 65954U 25228H   25329.07675897  .00055483  00000+0  15774-2 0  9998
2 65954  51.8777 105.6654 0005546 299.4415  60.6018 15.35603981  7703
KUIPER-00126            
1 65955U 25228J   25329.08336806 -.01013787  00000+0 -56387-1 0  9992
2 65955  51.8910 107.0546 0005550 310.9470  74.7444 15.16184131  5431
KUIPER-00127            
1 65956U 25228K   25329.08336806 -.00862757  00000+0 -39201-1 0  9997
2 65956  51.8868 106.2319 0004329 303.4553 178.4499 15.23109710  5570
KUIPER-00128            
1 65957U 25228L   25328.81725122  .00043207  00000+0  12470-2 0  9990
2 65957  51.8788 106.9358 0005922 296.7238  63.3141 15.35241930  7668
KUIPER-00129            
1 65958U 25228M   25328.81346602  .00052737  00000+0  14996-2 0  9996
2 65958  51.8785 106.9109 0006208 288.5770  71.4542 15.35618040  7663
KUIPER-00130            
1 65959U 25228N   25329.08215545  .00033721  00000+0  98275-3 0  9993
2 65959  51.8767 105.6988 0005288 309.7782  50.2737 15.35057113  7705
KUIPER-00134            
1 65960U 25228P   25329.08377190  .00050280  00000+0  14510-2 0  9998
2 65960  51.8781 105.7093 0005406 310.6809  49.3706 15.35181230  7707
KUIPER-00135            
1 65961U 25228Q   25329.08400037  .00045633  00000+0  13266-2 0  9999
2 65961  51.8794 105.7218 0003947 300.3475  59.7121 15.34998114  7706
KUIPER-00136            
1 65962U 25228R   25328.81195898  .00068091  00000+0  19283-2 0  9994
2 65962  51.8784 106.9007 0005867 288.2182  71.8165 15.35632536  7669
KUIPER-00137            
1 65963U 25228S   25329.08375596  .00033545  00000+0  97977-3 0  9993
2 65963  51.8795 105.7201 0005343 312.1893  47.8639 15.34990130  7700
KUIPER-00138            
1 65964U 25228T   25329.08772354  .00039671  00000+0  11544-2 0  9998
2 65964  51.8787 105.7381 0006736 314.3593  45.6840 15.35019432  7707
KUIPER-00140            
1 65965U 25228U   25329.09046337  .00022200  00000+0  66005-3 0  9998
2 65965  51.8795 105.7605 0005584 316.8111  43.2436 15.34656499  7703
KUIPER-00141            
1 65966U 25228V   25328.81545632  .00043216  00000+0  12348-2 0  9990
2 65966  51.8775 106.9148 0005522 296.0226  64.0191 15.35559374  7664
KUIPER-00146            
1 65967U 25228W   25329.08079895  .00032555  00000+0  94900-3 0  9993
2 65967  51.8787 105.7021 0005875 300.3873  59.6532 15.35063894  7704
KUIPER-00149            
1 65968U 25228X   25328.81186123  .00057366  00000+0  16269-2 0  9995
2 65968  51.8781 106.8942 0005511 291.3301  68.7096 15.35665989  7669
KUIPER-00154            
1 65969U 25228Y   25328.61780125  .00048069  00000+0  13814-2 0  9999
2 65969  51.8781 107.8433 0005851 292.7819  67.2549 15.35328496  7635
KUIPER-00157            
1 65970U 25228Z   25329.08456064  .00034978  00000+0  10200-2 0  9995
2 65970  51.8791 105.7259 0006183 313.3428  46.7042 15.35014379  7706
